ORBCOMM FM115           
1 41186U 15081H   24276.89355240  .00005511  00000+0  11382-2 0  9990
2 41186  46.9974 182.3269 0000884 299.7624  60.3175 14.61333468470126
ORBCOMM FM108           
1 41187U 15081J   24276.94365735  .00006052  00000+0  13658-2 0  9996
2 41187  47.0031 241.0327 0002103 215.3283 144.7463 14.57106344469268
ORBCOMM FM117           
1 41188U 15081K   24276.90989578  .00006050  00000+0  13654-2 0  9994
2 41188  46.9991 240.0404 0002876 228.0554 132.0086 14.57109288469302
ORBCOMM FM116           
1 41189U 15081L   24276.41964990  .00005571  00000+0  12596-2 0  9993
2 41189  47.0020 332.1903 0003132 292.7867  67.2687 14.57135253468043
